[{"OBJECT_NAME":"STARLINK-31538","OBJECT_ID":"2024-073Q","EPOCH":"2026-03-09T01:46:13.185408","MEAN_MOTION":15.2758695,"ECCENTRICITY":0.00011192,"INCLINATION":43.0023,"RA_OF_ASC_NODE":321.3062,"ARG_OF_PERICENTER":234.5052,"MEAN_ANOMALY":125.5695,"EPHEMERIS_TYPE":0,"CLASSIFICATION_TYPE":"U","NORAD_CAT_ID":59525,"ELEMENT_SET_NO":999,"REV_AT_EPOCH":10608,"BSTAR":3.147981e-5,"MEAN_MOTION_DOT":6.04e-6,"MEAN_MOTION_DDOT":0},{"OBJECT_NAME":"COSMOS 252 DEB","OBJECT_ID":"1968-097CF","EPOCH":"2026-03-09T12:03:06.881472","MEAN_MOTION":13.89760968,"ECCENTRICITY":0.06306282,"INCLINATION":62.7318,"RA_OF_ASC_NODE":125.8805,"ARG_OF_PERICENTER":159.9223,"MEAN_ANOMALY":202.7883,"EPHEMERIS_TYPE":0,"CLASSIFICATION_TYPE":"U","NORAD_CAT_ID":4421,"ELEMENT_SET_NO":999,"REV_AT_EPOCH":54558,"BSTAR":0.0010172608,"MEAN_MOTION_DOT":6.493e-5,"MEAN_MOTION_DDOT":0}]
